1 18123U 87 53  A 93194.03050954  .00000033  00000-0  26605-4 0  8639
2 18123  98.7945  25.6101 0015336  68.5067 291.7735 14.15295115313032
1 18123U 87 53  A 93199.40341421  .00000056  00000-0  38141-4 0  8696
2 18123  98.7955  30.9089 0015338  53.3578 306.9001 14.15296044313798
1 18123U 87 53  A 93203.50378575  .00000062  00000-0  41503-4 0  8742
2 18123  98.7940  34.9501 0015236  42.3255 317.9098 14.15296760314370
1 18123U 87 53  A 93207.81624086  .00000076  00000-0  48479-4 0  8789
2 18123  98.7934  39.2013 0015115  30.8035 329.4004 14.15297685314982
1 18123U 87 53  A 93215.52209804  .00000091  00000-0  56096-4 0  8852
2 18123  98.7949  46.8001 0014789   9.9070 350.2395 14.15299085316074
1 18123U 87 53  A 93220.40011219  .00000069  00000-0  44936-4 0  8907
2 18123  98.7952  51.6099 0014541 356.0553   4.0490 14.15299860316764
1 18123U 87 53  A 93225.20743010  .00000032  00000-0  25781-4 0  8931
2 18123  98.7968  56.3525 0014329 342.3286  17.7394 14.15300134317449
1 18123U 87 53  A 93229.37848299  .00000068  00000-0  44565-4 0  8972
2 18123  98.7953  60.4635 0014182 330.6111  29.4261 14.15301125318035
1 18123U 87 53  A 93234.89275201  .00000082  00000-0  51824-4 0  8996
2 18123  98.7937  65.8993 0013934 315.1475  44.8536 14.15302541318813
1 18123U 87 53  A 93238.99310719  .00000062  00000-0  41556-4 0  9029
2 18123  98.7939  69.9417 0013708 303.1356  56.8535 14.15303048319394
1 18123U 87 53  A 93243.02276401  .00000072  00000-0  46655-4 0  9068
2 18123  98.7947  73.9158 0013564 290.4731  69.4992 14.15303690319968
1 18123U 87 53  A 93248.89050853  .00000001  00000-0  99999-5 0  9094
2 18123  98.7933  79.7011 0013309 272.0324  87.9330 14.15304433320796
1 18123U 87 53  A 93255.53590622  .00000034  00000-0  26980-4 0  9158
2 18123  98.7933  86.2529 0013301 252.9238 107.0473 14.15305334321734
1 18123U 87 53  A 93263.31243104  .00000080  00000-0  50423-4 0  9186
2 18123  98.7953  93.9236 0013550 230.2279 129.7651 14.15307008322837
1 18123U 87 53  A 93268.47321556  .00000052  00000-0  36176-4 0  9229
2 18123  98.7934  99.0092 0013510 214.0487 145.9823 14.15307712323564
1 18123U 87 53  A 93275.47208570  .00000044  00000-0  32120-4 0  9267
2 18123  98.7938 105.9099 0013527 194.2972 165.7824 14.15308457324545
1 18123U 87 53  A 93282.04677629  .00000033  00000-0  26451-4 0  1016
2 18123  98.7934 112.3918 0013852 174.4569 185.6841 14.15309601325482
1 18123U 87 53  A 93286.78337398 -.00005004  00000-0 -25626-2 0  1046
2 18123  98.7899 117.0614 0014447 158.7759 201.3948 14.15307712326154
1 18123U 87 53  A 93290.81303653 -.00005003  00000-0 -25626-2 0  1063
2 18123  98.7886 121.0348 0014828 147.6483 212.6478 14.15303659326725
1 18123U 87 53  A 93298.44813632  .00000656  00000-0  35592-3 0  1097
2 18123  98.7893 128.5593 0014872 127.8305 232.4929 14.15315054327802
1 18123U 87053A   93309.26450174  .00000071  00000-0  46004-4 0  1124
2 18123  98.7900 139.2203 0015101  98.0747 262.2172 14.15315415329335
1 18123U 87053A   93320.50502724  .00000072  00000-0  46296-4 0  1172
2 18123  98.7899 150.3003 0015187  67.4569 292.8217 14.15317384330923
1 18123U 87053A   93324.53464335  .00000063  00000-0  42044-4 0  1238
2 18123  98.7878 154.2704 0015125  56.6857 303.5756 14.15318001331480
1 18123U 87053A   93329.97815434  .00000001  00000-0  10000-4 0  1342
2 18123  98.7828 159.6348 0015216  41.8188 318.4144 14.15319069332260
1 18123U 87053A   93340.51168647  .00000091  00000-0  56230-4 0  1368
2 18123  98.7878 170.0166 0014711  13.1678 346.9883 14.15321484333750
1 18123U 87053A   93348.71227328  .00000106  00000-0  64112-4 0  1376
2 18123  98.7880 178.0986 0014364 350.2980   9.7917 14.15323734334917
1 18123U 87053A   93354.01437322  .00000044  00000-0  45213-4 0  1656
2 18123  98.7886 183.3243 0014190 335.0955  24.9531 14.15324336335661
1 18123U 87053A   94004.92065750  .00000099  00000-0  73491-4 0  1986
2 18123  98.7894 199.0005 0013757 288.6344  71.3336 14.15327822337915
1 18123U 87 53  A 94 10.50552551  .00000120  00000-0  71272-4 0  1561
2 18123  98.7894 204.5046 0013696 271.9847  87.9758 14.15329041338701
1 18123U 87053A   94024.85650797  .00000057  00000-0  51778-4 0  2586
2 18123  98.7898 218.6489 0013564 228.2167 131.7848 14.15331315340737
1 18123U 87053A   94030.01720313  .00000062  00000-0  54518-4 0  2731
2 18123  98.7898 223.7352 0013683 212.5337 147.4995 14.15332293341464
1 18123U 87053A   94034.89511719  .00000056  00000-0  51445-4 0  2839
2 18123  98.7884 228.5400 0013792 197.1815 162.8892 14.15333599342150
1 18123U 87053A   94041.96455474  .00000048  00000-0  46851-4 0  3028
2 18123  98.7887 235.5076 0013976 176.7646 183.3620 14.15334661343158
1 18123U 87053  A 94047.05455366 -.00000069  00000-0  00000+0 0  3119
2 18123 098.7855 240.5252 0014040 165.0481 195.1649 14.15335003343878
1 18123U 87053  A 94051.08412739  .00000241  00000-0  12368-3 0  3153
2 18123 098.7886 244.4964 0014164 153.5667 206.6786 14.15336543344444
1 18123U 87053  A 94056.03272127 -.00000002  00000-0  00000+0 0  3206
2 18123 098.7858 249.3740 0014308 139.4248 220.8523 14.15336656345147
1 18123U 87053  A 94061.05200169 -.00000030  00000-0  00000+0 0  3246
2 18123 098.7856 254.3216 0014251 124.8265 235.4788 14.15338539345858
1 18123U 87053A   94066.00057607  .00000082  00000-0  64361-4 0  3323
2 18123  98.7896 259.1985 0015041 109.1817 251.0986 14.15340248346557
1 18123U 87053A   94073.98898881  .00000110  00000-0  78715-4 0  3594
2 18123  98.7902 267.0725 0015175  87.7073 272.5839 14.15342428347680
1 18123U 87053A   94081.90669245  .00000080  00000-0  63336-4 0  3796
2 18123  98.7903 274.8761 0015291  66.9559 293.3228 14.15344183348802
1 18123U 87053A   94088.19842854  .00000107  00000-0  77277-4 0  3927
2 18123  98.7904 281.0774 0015184  50.2728 309.9779 14.15345769349696
1 18123U 87053A   94093.92460803  .00000127  00000-0  87600-4 0  4041
2 18123  98.7906 286.7219 0015078  35.0252 325.1916 14.15347269350501
1 18123U 87053A   94100.92326275 -.00000024  00000-0  10000-4 0  4221
2 18123  98.7885 293.6168 0014835  16.4010 343.7551 14.15347336351497
1 18123U 87053A   94105.87180148  .00000063  00000-0  54988-4 0  4334
2 18123  98.7894 298.4942 0014712   2.3009 357.8235 14.15349449352196
1 18123U 87053A   94109.97201587  .00000065  00000-0  55898-4 0  4434
2 18123  98.7894 302.5350 0014567 351.0259   9.0652 14.15350399352774
1 18123U 87053A   94116.05164006  .00000086  00000-0  66585-4 0  4613
2 18123  98.7895 308.5267 0014263 333.9330  26.1121 14.15351937353636
1 18123U 87053A   94124.39344438  .00000029  00000-0  37402-4 0  4790
2 18123  98.7888 316.7458 0013852 309.4689  50.5247 14.15353193354816
1 18123U 87053A   94129.48335619  .00000071  00000-0  59025-4 0  4844
2 18123  98.7888 321.7615 0013437 294.2143  65.7622 14.15354491355539
1 18123U 87053A   94143.76337808  .00000058  00000-0  52474-4 0  4973
2 18123  98.7882 335.8310 0013141 250.8398 109.1353 14.15357299357550
1 18123U 87053A   94148.49981788  .00000078  00000-0  62636-4 0  5020
2 18123  98.7881 340.4975 0013107 236.3730 123.6198 14.15358395358220
1 18123U 87053A   94152.95348491  .00000022  00000-0  33643-4 0  5063
2 18123  98.7880 344.8852 0013156 222.6774 137.3379 14.15358665358853
1 18123U 87053A   94158.04338828  .00000036  00000-0  41128-4 0  5110
2 18123  98.7876 349.8992 0013308 206.7905 153.2579 14.15359528359574
1 18123U 87053A   94162.77982493  .00000037  00000-0  41641-4 0  5175
2 18123  98.7870 354.5651 0013407 192.8328 167.2506 14.15360222360241
1 18123U 87053A   94167.79903236  .00000017  00000-0  31223-4 0  5229
2 18123  98.7867 359.5092 0013607 178.0732 182.0496 14.15360723360955
1 18123U 87053A   94171.96991956  .00000031  00000-0  38355-4 0  5262
2 18123  98.7867   3.6182 0013843 166.0326 194.1233 14.15361626361542
1 18123U 87053A   94176.77704186  .00000060  00000-0  53131-4 0  5321
2 18123  98.7863   8.3532 0014146 152.2082 207.9855 14.15362622362228
1 18123U 87053A   94180.87723378 -.00000007  00000-0  18564-4 0  5380
2 18123  98.7862  12.3922 0014378 140.4386 219.7840 14.15362483362802
1 18123U 87053A   94185.75504410 -.00000010  00000-0  17272-4 0  5464
2 18123  98.7863  17.1974 0014628 127.0727 233.1784 14.15362996363493
1 18123U 87053A   94190.49145395  .00000044  00000-0  44878-4 0  5529
2 18123  98.7863  21.8635 0014752 113.7801 246.4929 14.15363932364166
1 18123U 87053A   94194.02609446  .00000028  00000-0  36466-4 0  5586
2 18123  98.7853  25.3446 0014938 104.7971 255.4858 14.15364371364741
1 18123U 87053A   94198.76251032  .00000022  00000-0  33821-4 0  5648
2 18123  98.7855  30.0101 0015039  91.9002 268.3913 14.15364857365418
1 18123U 87053A   94201.73160498 -.00000001  00000-0  21764-4 0  5691
2 18123  98.7860  32.9358 0015143  83.7892 276.5007 14.15364915365837
1 18123U 87053A   94205.76108695  .00000033  00000-0  39227-4 0  5742
2 18123  98.7861  36.9054 0015185  72.6995 287.5841 14.15365798366404
1 18123U 87053A   94208.73017845  .00000006  00000-0  25317-4 0  5776
2 18123  98.7863  39.8308 0015222  64.6281 295.6467 14.15365848366827
1 18123U 87053A   94212.47688668 -.00000002  00000-0  21393-4 0  5833
2 18123  98.7859  43.5209 0015213  54.3714 305.8869 14.15366214367358
1 18123U 87053A   94214.52697213 -.00000017  00000-0  13886-4 0  5875
2 18123  98.7862  45.5411 0015227  49.0033 311.2456 14.15366211367641
1 18123U 87053A   94276.87768158  .00000003  00000-0  24272-4 0  6784
2 18123  98.7860 106.9645 0013223 229.7211 130.2809 14.15373484376460
1 18123U 87053A   94278.99845160  .00000050  00000-0  48018-4 0  6818
2 18123  98.7856 109.0530 0013259 223.0135 137.0003 14.15374198376760
1 18123U 87053A   94284.93660878  .00000021  00000-0  33194-4 0  6873
2 18123  98.7856 114.9025 0013453 204.8888 155.1645 14.15374757377600
1 18123U 87053A   94290.73337981  .00000003  00000-0  24133-4 0  6956
2 18123  98.7856 120.6126 0013723 187.6029 172.4944 14.15375248378422
1 18123U 87053A   94296.74222393  .00000031  00000-0  38514-4 0  7021
2 18123  98.7808 126.5284 0013905 169.9997 190.1459 14.15376499379279
